{
  "type": "FeatureCollection",
  "features": [
    {
      "type": "Feature",
      "properties": {
        "norad_id": 38797,
        "name": "FENGYUN 1C DEB",
        "group": "fengyun-1c-debris",
        "lat": -76.42255015612075,
        "lon": -64.37396696937269,
        "alt_km": 1034.738452274697,
        "timestamp": "2025-12-25T07:41:10.013160+00:00",
        "meta_object_name": "FENGYUN 1C DEB",
        "meta_object_id": "1999-025EUM",
        "meta_epoch": "2025-12-21T10:37:18.137856",
        "meta_mean_motion": 13.61613976,
        "meta_eccentricity": 0.02449187,
        "meta_inclination": 99.4843,
        "meta_ra_of_asc_node": 248.0555,
        "meta_arg_of_pericenter": 199.0138,
        "meta_mean_anomaly": 160.1737,
        "meta_ephemeris_type": 0,
        "meta_classification_type": "U",
        "meta_norad_cat_id": 38797,
        "meta_element_set_no": 999,
        "meta_rev_at_epoch": 59401,
        "meta_bstar": 0.00019998345,
        "meta_mean_motion_dot": 1.44e-06,
        "meta_mean_motion_ddot": 0,
        "tle_line1": "1 38797U 99025EUM 25355.44257104  .00000144  00000+0  19998-3 0  9993",
        "tle_line2": "2 38797  99.4843 248.0555 0244918 199.0138 160.1737 13.61613976594018"
      },
      "geometry": {
        "type": "Point",
        "coordinates": [
          -64.37396696937269,
          -76.42255015612075
        ]
      }
    },
    {
      "type": "Feature",
      "properties": {
        "norad_id": 38799,
        "name": "FENGYUN 1C DEB",
        "group": "fengyun-1c-debris",
        "lat": -81.04942941678289,
        "lon": -175.1018853812763,
        "alt_km": 653.7140379734465,
        "timestamp": "2025-12-25T07:41:10.013170+00:00",
        "meta_object_name": "FENGYUN 1C DEB",
        "meta_object_id": "1999-025EUP",
        "meta_epoch": "2025-12-23T11:21:05.361408",
        "meta_mean_motion": 14.48820928,
        "meta_eccentricity": 0.01632234,
        "meta_inclination": 98.4043,
        "meta_ra_of_asc_node": 72.8877,
        "meta_arg_of_pericenter": 317.4693,
        "meta_mean_anomaly": 41.395,
        "meta_ephemeris_type": 0,
        "meta_classification_type": "U",
        "meta_norad_cat_id": 38799,
        "meta_element_set_no": 999,
        "meta_rev_at_epoch": 64194,
        "meta_bstar": 0.00093364434,
        "meta_mean_motion_dot": 4.126e-05,
        "meta_mean_motion_ddot": 0,
        "tle_line1": "1 38799U 99025EUP 25357.47297872  .00004126  00000+0  93364-3 0  9999",
        "tle_line2": "2 38799  98.4043  72.8877 0163223 317.4693  41.3950 14.48820928641947"
      },
      "geometry": {
        "type": "Point",
        "coordinates": [
          -175.1018853812763,
          -81.04942941678289
        ]
      }
    },
    {
      "type": "Feature",
      "properties": {
        "norad_id": 38801,
        "name": "FENGYUN 1C DEB",
        "group": "fengyun-1c-debris",
        "lat": 1.9005102662190725,
        "lon": -130.32821997189998,
        "alt_km": 990.0123274195275,
        "timestamp": "2025-12-25T07:41:10.013181+00:00",
        "meta_object_name": "FENGYUN 1C DEB",
        "meta_object_id": "1999-025EUR",
        "meta_epoch": "2025-12-14T23:38:20.156064",
        "meta_mean_motion": 14.2482334,
        "meta_eccentricity": 0.03468339,
        "meta_inclination": 98.3742,
        "meta_ra_of_asc_node": 39.5088,
        "meta_arg_of_pericenter": 345.3815,
        "meta_mean_anomaly": 131.5103,
        "meta_ephemeris_type": 0,
        "meta_classification_type": "U",
        "meta_norad_cat_id": 38801,
        "meta_element_set_no": 999,
        "meta_rev_at_epoch": 64392,
        "meta_bstar": 0.00040763026,
        "meta_mean_motion_dot": 1.732e-05,
        "meta_mean_motion_ddot": 0,
        "tle_line1": "1 38801U 99025EUR 25348.98495551  .00001732  00000+0  40763-3 0  9998",
        "tle_line2": "2 38801  98.3742  39.5088 0346833 345.3815 131.5103 14.24823340643923"
      },
      "geometry": {
        "type": "Point",
        "coordinates": [
          -130.32821997189998,
          1.9005102662190725
        ]
      }
    },
    {
      "type": "Feature",
      "properties": {
        "norad_id": 38803,
        "name": "FENGYUN 1C DEB",
        "group": "fengyun-1c-debris",
        "lat": 2.1384470784816316,
        "lon": 3.3081829134454606,
        "alt_km": 768.906945774962,
        "timestamp": "2025-12-25T07:41:10.013191+00:00",
        "meta_object_name": "FENGYUN 1C DEB",
        "meta_object_id": "1999-025EUT",
        "meta_epoch": "2025-12-11T23:13:14.145312",
        "meta_mean_motion": 14.23657255,
        "meta_eccentricity": 0.00641548,
        "meta_inclination": 99.1415,
        "meta_ra_of_asc_node": 349.7806,
        "meta_arg_of_pericenter": 38.4896,
        "meta_mean_anomaly": 322.0831,
        "meta_ephemeris_type": 0,
        "meta_classification_type": "U",
        "meta_norad_cat_id": 38803,
        "meta_element_set_no": 999,
        "meta_rev_at_epoch": 60201,
        "meta_bstar": 0.003287403,
        "meta_mean_motion_dot": 7.619e-05,
        "meta_mean_motion_ddot": 0,
        "tle_line1": "1 38803U 99025EUT 25345.96752483  .00007619  00000+0  32874-2 0  9998",
        "tle_line2": "2 38803  99.1415 349.7806 0064154  38.4896 322.0831 14.23657255602016"
      },
      "geometry": {
        "type": "Point",
        "coordinates": [
          3.3081829134454606,
          2.1384470784816316
        ]
      }
    },
    {
      "type": "Feature",
      "properties": {
        "norad_id": 38809,
        "name": "FENGYUN 1C DEB",
        "group": "fengyun-1c-debris",
        "lat": 62.12490335303562,
        "lon": -7.507156877761316,
        "alt_km": 930.3059032205938,
        "timestamp": "2025-12-25T07:41:10.013202+00:00",
        "meta_object_name": "FENGYUN 1C DEB",
        "meta_object_id": "1999-025EUZ",
        "meta_epoch": "2025-12-23T19:49:43.140000",
        "meta_mean_motion": 14.18201814,
        "meta_eccentricity": 0.02225154,
        "meta_inclination": 98.5892,
        "meta_ra_of_asc_node": 7.6495,
        "meta_arg_of_pericenter": 295.9236,
        "meta_mean_anomaly": 61.9159,
        "meta_ephemeris_type": 0,
        "meta_classification_type": "U",
        "meta_norad_cat_id": 38809,
        "meta_element_set_no": 999,
        "meta_rev_at_epoch": 69363,
        "meta_bstar": 0.00046429524,
        "meta_mean_motion_dot": 1.172e-05,
        "meta_mean_motion_ddot": 0,
        "tle_line1": "1 38809U 99025EUZ 25357.82619375  .00001172  00000+0  46430-3 0  9996",
        "tle_line2": "2 38809  98.5892   7.6495 0222515 295.9236  61.9159 14.18201814693633"
      },
      "geometry": {
        "type": "Point",
        "coordinates": [
          -7.507156877761316,
          62.12490335303562
        ]
      }
    },
    {
      "type": "Feature",
      "properties": {
        "norad_id": 38813,
        "name": "FENGYUN 1C DEB",
        "group": "fengyun-1c-debris",
        "lat": -72.5232316390374,
        "lon": 145.647994507189,
        "alt_km": 836.7193334557669,
        "timestamp": "2025-12-25T07:41:10.013212+00:00",
        "meta_object_name": "FENGYUN 1C DEB",
        "meta_object_id": "1999-025EVD",
        "meta_epoch": "2025-12-20T06:26:16.727424",
        "meta_mean_motion": 14.20180408,
        "meta_eccentricity": 0.00066213,
        "meta_inclination": 99.3456,
        "meta_ra_of_asc_node": 351.851,
        "meta_arg_of_pericenter": 94.7535,
        "meta_mean_anomaly": 265.4396,
        "meta_ephemeris_type": 0,
        "meta_classification_type": "U",
        "meta_norad_cat_id": 38813,
        "meta_element_set_no": 999,
        "meta_rev_at_epoch": 48357,
        "meta_bstar": 0.00039057682,
        "meta_mean_motion_dot": 7.85e-06,
        "meta_mean_motion_ddot": 0,
        "tle_line1": "1 38813U 99025EVD 25354.26824916  .00000785  00000+0  39058-3 0  9992",
        "tle_line2": "2 38813  99.3456 351.8510 0006621  94.7535 265.4396 14.20180408483572"
      },
      "geometry": {
        "type": "Point",
        "coordinates": [
          145.647994507189,
          -72.5232316390374
        ]
      }
    },
    {
      "type": "Feature",
      "properties": {
        "norad_id": 38817,
        "name": "FENGYUN 1C DEB",
        "group": "fengyun-1c-debris",
        "lat": -58.564506808470526,
        "lon": -117.54517112454626,
        "alt_km": 975.919191682091,
        "timestamp": "2025-12-25T07:41:10.013222+00:00",
        "meta_object_name": "FENGYUN 1C DEB",
        "meta_object_id": "1999-025EVH",
        "meta_epoch": "2025-12-23T20:35:47.170176",
        "meta_mean_motion": 13.57734198,
        "meta_eccentricity": 0.0291793,
        "meta_inclination": 98.6001,
        "meta_ra_of_asc_node": 226.8391,
        "meta_arg_of_pericenter": 15.5256,
        "meta_mean_anomaly": 345.4607,
        "meta_ephemeris_type": 0,
        "meta_classification_type": "U",
        "meta_norad_cat_id": 38817,
        "meta_element_set_no": 999,
        "meta_rev_at_epoch": 65985,
        "meta_bstar": 0.0022277,
        "meta_mean_motion_dot": 2.078e-05,
        "meta_mean_motion_ddot": 0,
        "tle_line1": "1 38817U 99025EVH 25357.85818484  .00002078  00000+0  22277-2 0  9998",
        "tle_line2": "2 38817  98.6001 226.8391 0291793  15.5256 345.4607 13.57734198659859"
      },
      "geometry": {
        "type": "Point",
        "coordinates": [
          -117.54517112454626,
          -58.564506808470526
        ]
      }
    }
  ]
}